NORAD_CAT_ID,OBJECT_NAME,OBJECT_TYPE,EPOCH,MEAN_MOTION,ECCENTRICITY,INCLINATION,RA_OF_ASC_NODE,ARG_OF_PERICENTER,MEAN_ANOMALY,BSTAR,MEAN_MOTION_DOT,MEAN_MOTION_DDOT,TLE_LINE0,TLE_LINE1,TLE_LINE2,SEMIMAJOR_AXIS,PERIOD,APOGEE,PERIGEE,DECAYED
54063.0,STARLINK-5225,PAYLOAD,2023-08-08 15:03:43,15.08850171,0.0001237,53.2149,262.1094,98.0833,262.03,0.00027779,4.137e-05,0.0,0 STARLINK-5225,1 54063U 22136N   23220.62759051  .00004137  00000-0  27779-3 0  9996,2 54063  53.2149 262.1094 0001237  98.0833 262.0300 15.08850171 44807,6917.849,95.437,540.57,538.859,0.0
54063.0,STARLINK-5225,PAYLOAD,2023-08-09 02:11:26,15.0883506,0.0001229,53.215,260.0277,96.4223,263.6909,0.0001908,2.75e-05,0.0,0 STARLINK-5225,1 54063U 22136N   23221.09128106  .00002750  00000-0  19080-3 0  9994,2 54063  53.2150 260.0277 0001229  96.4223 263.6909 15.08835060 44874,6917.895,95.438,540.611,538.91,0.0
54063.0,STARLINK-5225,PAYLOAD,2023-08-10 09:59:09,15.08837464,0.000114,53.2145,254.0799,86.1438,273.9685,0.00028978,4.327e-05,0.0,0 STARLINK-5225,1 54063U 22136N   23222.41608317  .00004327  00000-0  28978-3 0  9996,2 54063  53.2145 254.0799 0001140  86.1438 273.9685 15.08837464 45074,6917.888,95.438,540.542,538.965,0.0
54063.0,STARLINK-5225,PAYLOAD,2023-08-11 13:00:42,15.08846607,0.0001155,53.2147,249.024,84.817,275.2954,0.00031953,4.802e-05,0.0,0 STARLINK-5225,1 54063U 22136N   23223.54216192  .00004802  00000-0  31953-3 0  9992,2 54063  53.2147 249.0240 0001155  84.8170 275.2954 15.08846607 45247,6917.86,95.437,540.524,538.926,0.0
54063.0,STARLINK-5225,PAYLOAD,2023-08-12 01:43:47,15.08842672,0.0001191,53.2144,246.6459,81.6222,278.4905,0.00016482,2.336e-05,0.0,0 STARLINK-5225,1 54063U 22136N   23224.07208311  .00002336  00000-0  16482-3 0  9995,2 54063  53.2144 246.6459 0001191  81.6222 278.4905 15.08842672 45320,6917.872,95.437,540.561,538.913,0.0
54063.0,STARLINK-5225,PAYLOAD,2023-08-13 01:34:34,15.08840637,0.0001257,53.214,242.184,92.9774,267.1362,5.2715e-05,5.51e-06,0.0,0 STARLINK-5225,1 54063U 22136N   23225.06568254  .00000551  00000-0  52715-4 0  9997,2 54063  53.2140 242.1840 0001257  92.9774 267.1362 15.08840637 45478,6917.878,95.438,540.613,538.874,0.0
54063.0,STARLINK-5225,PAYLOAD,2023-08-14 03:00:44,15.08842398,0.0001419,53.2129,237.4264,92.943,267.1725,4.9188e-05,4.95e-06,0.0,0 STARLINK-5225,1 54063U 22136N   23226.12552070  .00000495  00000-0  49188-4 0  9991,2 54063  53.2129 237.4264 0001419  92.9430 267.1725 15.08842398 45638,6917.873,95.437,540.72,538.756,0.0
54063.0,STARLINK-5225,PAYLOAD,2023-08-15 09:13:04,15.08839764,0.0001228,53.2154,231.7763,88.3437,271.7696,9.0362e-05,1.151e-05,0.0,0 STARLINK-5225,1 54063U 22136N   23227.38408400  .00001151  00000-0  90362-4 0  9997,2 54063  53.2154 231.7763 0001228  88.3437 271.7696 15.08839764 45823,6917.881,95.438,540.596,538.897,0.0
54063.0,STARLINK-5225,PAYLOAD,2023-08-16 17:00:47,15.08839254,0.000111,53.2159,225.8288,90.9173,269.1947,4.1599e-05,3.74e-06,0.0,0 STARLINK-5225,1 54063U 22136N   23228.70888673  .00000374  00000-0  41599-4 0  9992,2 54063  53.2159 225.8288 0001110  90.9173 269.1947 15.08839254 46027,6917.883,95.438,540.516,538.98,0.0
54063.0,STARLINK-5225,PAYLOAD,2023-08-17 16:51:35,15.08832343,0.000128,53.2163,221.3683,86.2111,273.9028,-3.1487e-06,-3.38e-06,0.0,0 STARLINK-5225,1 54063U 22136N   23229.70249393 -.00000338  00000-0 -31487-5 0  9991,2 54063  53.2163 221.3683 0001280  86.2111 273.9028 15.08832343 46171,6917.904,95.438,540.654,538.883,0.0
54063.0,STARLINK-5225,PAYLOAD,2023-08-18 08:45:26,15.08839932,0.0001129,53.216,218.3945,86.4699,273.6423,7.5331e-05,9.11e-06,0.0,0 STARLINK-5225,1 54063U 22136N   23230.36488924  .00000911  00000-0  75331-4 0  9990,2 54063  53.2160 218.3945 0001129  86.4699 273.6423 15.08839932 46278,6917.881,95.438,540.527,538.965,0.0
54063.0,STARLINK-5225,PAYLOAD,2023-08-19 10:11:35,15.08852643,0.0001111,53.216,213.6354,98.0127,262.0992,0.00024345,3.59e-05,0.0,0 STARLINK-5225,1 54063U 22136N   23231.42472186  .00003590  00000-0  24345-3 0  9995,2 54063  53.2160 213.6354 0001111  98.0127 262.0992 15.08852643 46431,6917.842,95.437,540.475,538.938,0.0
54063.0,STARLINK-5225,PAYLOAD,2023-08-20 03:40:51,15.08842088,0.0001187,53.2155,210.3646,97.5656,262.5471,0.00015517,2.183e-05,0.0,0 STARLINK-5225,1 54063U 22136N   23232.15336890  .00002183  00000-0  15517-3 0  9995,2 54063  53.2155 210.3646 0001187  97.5656 262.5471 15.08842088 46548,6917.874,95.437,540.56,538.918,0.0
54063.0,STARLINK-5225,PAYLOAD,2023-08-21 05:07:01,15.08842381,0.0001223,53.2171,205.6082,86.9432,273.17,0.00013534,1.867e-05,0.0,0 STARLINK-5225,1 54063U 22136N   23233.21321019  .00001867  00000-0  13534-3 0  9995,2 54063  53.2171 205.6082 0001223  86.9432 273.1700 15.08842381 46709,6917.873,95.437,540.584,538.892,0.0
54063.0,STARLINK-5225,PAYLOAD,2023-08-22 08:08:34,15.08847829,0.0001325,53.2166,200.553,103.7947,256.3192,0.00021754,3.177e-05,0.0,0 STARLINK-5225,1 54063U 22136N   23234.33928749  .00003177  00000-0  21754-3 0  9991,2 54063  53.2166 200.5530 0001325 103.7947 256.3192 15.08847829 46875,6917.856,95.437,540.638,538.805,0.0
54063.0,STARLINK-5225,PAYLOAD,2023-08-23 01:37:49,15.08837801,0.0001358,53.2168,197.2811,109.1691,250.9448,1.1995e-05,-9.7e-07,0.0,0 STARLINK-5225,1 54063U 22136N   23235.06793278 -.00000097  00000-0  11995-4 0  9995,2 54063  53.2168 197.2811 0001358 109.1691 250.9448 15.08837801 46988,6917.887,95.438,540.692,538.813,0.0
54063.0,STARLINK-5225,PAYLOAD,2023-08-24 06:14:46,15.08844176,0.0001141,53.2176,191.9298,105.5383,254.5735,3.835e-05,3.23e-06,0.0,0 STARLINK-5225,1 54063U 22136N   23236.26025463  .00000323  00000-0  38350-4 0  9997,2 54063  53.2176 191.9298 0001141 105.5383 254.5735 15.08844176 46684,6917.868,95.437,540.522,538.943,0.0
54063.0,STARLINK-5225,PAYLOAD,2023-08-25 04:30:09,15.08848851,0.0001024,53.2174,187.7679,88.241,271.8699,0.00016405,2.325e-05,0.0,0 STARLINK-5225,1 54063U 22136N   23237.18761011  .00002325  00000-0  16405-3 0  9995,2 54063  53.2174 187.7679 0001024  88.2410 271.8699 15.08848851 46827,6917.853,95.437,540.427,539.01,0.0
54063.0,STARLINK-5225,PAYLOAD,2023-08-25 20:24:01,15.08842167,0.0001496,53.2167,184.7977,64.4974,295.6173,0.00013126,1.802e-05,0.0,0 STARLINK-5225,1 54063U 22136N   23237.85001661  .00001802  00000-0  13126-3 0  9993,2 54063  53.2167 184.7977 0001496  64.4974 295.6173 15.08842167 47401,6917.874,95.437,540.774,538.704,0.0
54063.0,STARLINK-5225,PAYLOAD,2023-08-26 05:56:19,15.0884958,0.0001044,53.2174,183.0091,88.4518,271.6593,0.00012191,1.653e-05,0.0,0 STARLINK-5225,1 54063U 22136N   23238.24744965  .00001653  00000-0  12191-3 0  9993,2 54063  53.2174 183.0091 0001044  88.4518 271.6593 15.08849580 46985,6917.851,95.437,540.438,538.994,0.0
54063.0,STARLINK-5225,PAYLOAD,2023-08-27 02:36:20,15.08854871,0.0001339,53.2184,179.1454,112.2087,247.9047,-9.4313e-05,-1.789e-05,0.0,0 STARLINK-5225,1 54063U 22136N   23239.10857112 -.00001789  00000-0 -94313-4 0  9997,2 54063  53.2184 179.1454 0001339 112.2087 247.9047 15.08854871 47596,6917.835,95.437,540.626,538.774,0.0
54063.0,STARLINK-5225,PAYLOAD,2023-08-28 02:27:08,15.08838611,0.0001262,53.2175,174.6835,86.2978,273.8159,3.1785e-05,2.18e-06,0.0,0 STARLINK-5225,1 54063U 22136N   23240.10217814  .00000218  00000-0  31785-4 0  9996,2 54063  53.2175 174.6835 0001262  86.2978 273.8159 15.08838611 47746,6917.885,95.438,540.623,538.877,0.0
54063.0,STARLINK-5225,PAYLOAD,2023-08-28 19:56:22,15.08849156,0.0001393,53.2176,171.4115,85.0897,275.0255,-0.00013601,-2.452e-05,0.0,0 STARLINK-5225,1 54063U 22136N   23240.83082046 -.00002452  00000-0 -13601-3 0  9993,2 54063  53.2176 171.4115 0001393  85.0897 275.0255 15.08849156 47371,6917.852,95.437,540.681,538.754,0.0
54063.0,STARLINK-5225,PAYLOAD,2023-08-29 05:28:41,15.08840626,0.0001337,53.2181,169.63,104.6127,255.5014,0.00013233,1.819e-05,0.0,0 STARLINK-5225,1 54063U 22136N   23241.22825531  .00001819  00000-0  13233-3 0  9996,2 54063  53.2181 169.6300 0001337 104.6127 255.5014 15.08840626 47913,6917.878,95.438,540.668,538.819,0.0
54063.0,STARLINK-5225,PAYLOAD,2023-08-29 11:50:15,15.08830975,0.0002028,53.2184,168.4399,62.4435,297.6763,-3.6984e-05,-8.77e-06,0.0,0 STARLINK-5225,1 54063U 22136N   23241.49322951 -.00000877  00000-0 -36984-4 0  9997,2 54063  53.2184 168.4399 0002028  62.4435 297.6763 15.08830975 47950,6917.908,95.438,541.176,538.37,0.0
54063.0,STARLINK-5225,PAYLOAD,2023-08-30 05:19:28,15.08839644,0.0001197,53.2181,165.1686,94.4361,265.6768,0.00010846,1.439e-05,0.0,0 STARLINK-5225,1 54063U 22136N   23242.22186267  .00001439  00000-0  10846-3 0  9998,2 54063  53.2181 165.1686 0001197  94.4361 265.6768 15.08839644 48064,6917.881,95.438,540.575,538.918,0.0
54063.0,STARLINK-5225,PAYLOAD,2023-08-30 11:40:46,15.09047804,0.0001708,53.2184,163.9851,244.8054,115.2761,0.0017611,0.00028012,0.0,0 STARLINK-5225,1 54063U 22136N   23242.48665431  .00028012  00000-0  17611-2 0  9993,2 54063  53.2184 163.9851 0001708 244.8054 115.2761 15.09047804 48103,6917.245,95.424,540.292,537.929,0.0
54063.0,STARLINK-5225,PAYLOAD,2023-08-31 01:59:25,15.08912375,9.43e-05,53.2186,161.3096,142.7311,217.3747,0.00060335,9.346e-05,0.0,0 STARLINK-5225,1 54063U 22136N   23243.08292885  .00009346  00000-0  60335-3 0  9990,2 54063  53.2186 161.3096 0000943 142.7311 217.3747 15.08912375 48190,6917.659,95.433,540.177,538.872,0.0
54063.0,STARLINK-5225,PAYLOAD,2023-08-31 09:56:28,15.08794447,9.98e-05,53.2182,159.8227,152.764,207.3405,-0.00041975,-6.953e-05,0.0,0 STARLINK-5225,1 54063U 22136N   23243.41422302 -.00006953  00000-0 -41975-3 0  9998,2 54063  53.2182 159.8227 0000998 152.7640 207.3405 15.08794447 48244,6918.02,95.44,540.575,539.194,0.0
54063.0,STARLINK-5225,PAYLOAD,2023-09-01 11:22:37,15.08815184,9.49e-05,53.2167,155.062,108.2667,251.8428,0.00023746,3.491e-05,0.0,0 STARLINK-5225,1 54063U 22136N   23244.47404237  .00003491  00000-0  23746-3 0  9990,2 54063  53.2167 155.0620 0000949 108.2667 251.8428 15.08815184 48402,6917.956,95.439,540.478,539.165,0.0
